2026-052G               
1 68204U 26052G   26087.27337044  .00008377  00000+0  50866-3 0  9990
2 68204  97.5377 163.3413 0009577 219.2995 140.7540 15.10715388  1838
KZ-11 R/B               
1 68205U 26052H   26087.29075456  .00028868  19327-5  43186-3 0  9991
2 68205  97.3417 162.6752 0546288 333.7377  23.7039 14.67198282  1787
2026-052J               
1 68206U 26052J   26087.28779344  .00061026  23829-5  89463-3 0  9991
2 68206  97.3420 162.6782 0543712 333.7926  23.6664 14.67938828  1785
STARLINK-36986          
1 68207U 26053A   26087.16668981 -.00107933  00000+0 -56773-3 0  9992
2 68207  97.2837 322.3117 0001330  93.7613 337.3463 15.80892602  2985
STARLINK-37009          
1 68208U 26053B   26087.16668981 -.00171576  00000+0 -90739-3 0  9997
2 68208  97.2830 322.3121 0002130  89.3573 345.9789 15.80939506  2980
STARLINK-36948          
1 68209U 26053C   26087.16668981  .00026320  00000+0  13738-3 0  9996
2 68209  97.2832 322.3149 0001451 100.3226 339.2583 15.80871975  2878
STARLINK-37119          
1 68210U 26053D   26087.16668981 -.00033074  00000+0 -17228-3 0  9992
2 68210  97.2829 322.3157 0001435  97.0119 346.9045 15.80853507  2981
STARLINK-37120          
1 68211U 26053E   26087.16668981 -.00003247  00000+0 -16211-4 0  9994
2 68211  97.2825 322.3170 0001648 102.6706 345.5315 15.80821574  2966
STARLINK-37117          
1 68212U 26053F   26087.16668981  .00036964  00000+0  19293-3 0  9997
2 68212  97.2834 322.3201 0001124 109.8660 342.6105 15.80812258  2985
STARLINK-37116          
1 68213U 26053G   26087.16668981  .00026724  00000+0  13982-3 0  9990
2 68213  97.2825 322.3211 0001285 103.9285 352.8195 15.80817135  2984
STARLINK-35854          
1 68214U 26053H   26087.16668981  .00019725  00000+0  10345-3 0  9994
2 68214  97.2826 322.3230 0001034  88.0321  12.9874 15.80823472  2746
STARLINK-36272          
1 68215U 26053J   26087.16668981 -.00018159  00000+0 -94204-4 0  9994
2 68215  97.2822 322.3245 0001300  84.4676  20.8263 15.80828491  2878
