CCSDS_OMM_VERS = 2.0
CREATION_DATE  = 
ORIGINATOR     = 

OBJECT_NAME    = 2026-052G
OBJECT_ID      = 2026-052G
CENTER_NAME    = EARTH
REF_FRAME      = TEME
TIME_SYSTEM    = UTC
MEAN_ELEMENT_THEORY = SGP/SGP4

EPOCH          = 2026-03-28T06:33:39.206016
MEAN_MOTION    = 15.10715388
ECCENTRICITY   = .00095776
INCLINATION    = 97.5377
RA_OF_ASC_NODE = 163.3413
ARG_OF_PERICENTER = 219.2995
MEAN_ANOMALY   = 140.7540

EPHEMERIS_TYPE = 0
CLASSIFICATION_TYPE = U
NORAD_CAT_ID   = 68204
ELEMENT_SET_NO = 999
REV_AT_EPOCH   = 183
BSTAR          = .50866048E-3
MEAN_MOTION_DOT = .8377E-4
MEAN_MOTION_DDOT = 0

CCSDS_OMM_VERS = 2.0
CREATION_DATE  = 
ORIGINATOR     = 

OBJECT_NAME    = KZ-11 R/B
OBJECT_ID      = 2026-052H
CENTER_NAME    = EARTH
REF_FRAME      = TEME
TIME_SYSTEM    = UTC
MEAN_ELEMENT_THEORY = SGP/SGP4

EPOCH          = 2026-03-28T06:58:41.193984
MEAN_MOTION    = 14.67198282
ECCENTRICITY   = .05462884
INCLINATION    = 97.3417
RA_OF_ASC_NODE = 162.6752
ARG_OF_PERICENTER = 333.7377
MEAN_ANOMALY   = 23.7039

EPHEMERIS_TYPE = 0
CLASSIFICATION_TYPE = U
NORAD_CAT_ID   = 68205
ELEMENT_SET_NO = 999
REV_AT_EPOCH   = 178
BSTAR          = .4318597E-3
MEAN_MOTION_DOT = .28868E-3
MEAN_MOTION_DDOT = .1932734E-5

CCSDS_OMM_VERS = 2.0
CREATION_DATE  = 
ORIGINATOR     = 

OBJECT_NAME    = 2026-052J
OBJECT_ID      = 2026-052J
CENTER_NAME    = EARTH
REF_FRAME      = TEME
TIME_SYSTEM    = UTC
MEAN_ELEMENT_THEORY = SGP/SGP4

EPOCH          = 2026-03-28T06:54:25.353216
MEAN_MOTION    = 14.67938828
ECCENTRICITY   = .05437121
INCLINATION    = 97.3420
RA_OF_ASC_NODE = 162.6782
ARG_OF_PERICENTER = 333.7926
MEAN_ANOMALY   = 23.6664

EPHEMERIS_TYPE = 0
CLASSIFICATION_TYPE = U
NORAD_CAT_ID   = 68206
ELEMENT_SET_NO = 999
REV_AT_EPOCH   = 178
BSTAR          = .89463357E-3
MEAN_MOTION_DOT = .61026E-3
MEAN_MOTION_DDOT = .238287E-5

CCSDS_OMM_VERS = 2.0
CREATION_DATE  = 
ORIGINATOR     = 

OBJECT_NAME    = STARLINK-36986
OBJECT_ID      = 2026-053A
CENTER_NAME    = EARTH
REF_FRAME      = TEME
TIME_SYSTEM    = UTC
MEAN_ELEMENT_THEORY = SGP/SGP4

EPOCH          = 2026-03-28T04:00:01.999584
MEAN_MOTION    = 15.80892602
ECCENTRICITY   = .00013307
INCLINATION    = 97.2837
RA_OF_ASC_NODE = 322.3117
ARG_OF_PERICENTER = 93.7613
MEAN_ANOMALY   = 337.3463

EPHEMERIS_TYPE = 0
CLASSIFICATION_TYPE = U
NORAD_CAT_ID   = 68207
ELEMENT_SET_NO = 999
REV_AT_EPOCH   = 298
BSTAR          = -.5677285E-3
MEAN_MOTION_DOT = -.107933E-2
MEAN_MOTION_DDOT = 0

CCSDS_OMM_VERS = 2.0
CREATION_DATE  = 
ORIGINATOR     = 

OBJECT_NAME    = STARLINK-37009
OBJECT_ID      = 2026-053B
CENTER_NAME    = EARTH
REF_FRAME      = TEME
TIME_SYSTEM    = UTC
MEAN_ELEMENT_THEORY = SGP/SGP4

EPOCH          = 2026-03-28T04:00:01.999584
MEAN_MOTION    = 15.80939506
ECCENTRICITY   = .00021306
INCLINATION    = 97.2830
RA_OF_ASC_NODE = 322.3121
ARG_OF_PERICENTER = 89.3573
MEAN_ANOMALY   = 345.9789

EPHEMERIS_TYPE = 0
CLASSIFICATION_TYPE = U
NORAD_CAT_ID   = 68208
ELEMENT_SET_NO = 999
REV_AT_EPOCH   = 298
BSTAR          = -.90739296E-3
MEAN_MOTION_DOT = -.171576E-2
MEAN_MOTION_DDOT = 0

CCSDS_OMM_VERS = 2.0
CREATION_DATE  = 
ORIGINATOR     = 

OBJECT_NAME    = STARLINK-36948
OBJECT_ID      = 2026-053C
CENTER_NAME    = EARTH
REF_FRAME      = TEME
TIME_SYSTEM    = UTC
MEAN_ELEMENT_THEORY = SGP/SGP4

EPOCH          = 2026-03-28T04:00:01.999584
MEAN_MOTION    = 15.80871975
ECCENTRICITY   = .0001451
INCLINATION    = 97.2832
RA_OF_ASC_NODE = 322.3149
ARG_OF_PERICENTER = 100.3226
MEAN_ANOMALY   = 339.2583

EPHEMERIS_TYPE = 0
CLASSIFICATION_TYPE = U
NORAD_CAT_ID   = 68209
ELEMENT_SET_NO = 999
REV_AT_EPOCH   = 287
BSTAR          = .13738157E-3
MEAN_MOTION_DOT = .2632E-3
MEAN_MOTION_DDOT = 0

CCSDS_OMM_VERS = 2.0
CREATION_DATE  = 
ORIGINATOR     = 

OBJECT_NAME    = STARLINK-37119
OBJECT_ID      = 2026-053D
CENTER_NAME    = EARTH
REF_FRAME      = TEME
TIME_SYSTEM    = UTC
MEAN_ELEMENT_THEORY = SGP/SGP4

EPOCH          = 2026-03-28T04:00:01.999584
MEAN_MOTION    = 15.80853507
ECCENTRICITY   = .00014356
INCLINATION    = 97.2829
RA_OF_ASC_NODE = 322.3157
ARG_OF_PERICENTER = 97.0119
MEAN_ANOMALY   = 346.9045

EPHEMERIS_TYPE = 0
CLASSIFICATION_TYPE = U
NORAD_CAT_ID   = 68210
ELEMENT_SET_NO = 999
REV_AT_EPOCH   = 298
BSTAR          = -.17227902E-3
MEAN_MOTION_DOT = -.33074E-3
MEAN_MOTION_DDOT = 0

CCSDS_OMM_VERS = 2.0
CREATION_DATE  = 
ORIGINATOR     = 

OBJECT_NAME    = STARLINK-37120
OBJECT_ID      = 2026-053E
CENTER_NAME    = EARTH
REF_FRAME      = TEME
TIME_SYSTEM    = UTC
MEAN_ELEMENT_THEORY = SGP/SGP4

EPOCH          = 2026-03-28T04:00:01.999584
MEAN_MOTION    = 15.80821574
ECCENTRICITY   = .00016486
INCLINATION    = 97.2825
RA_OF_ASC_NODE = 322.3170
ARG_OF_PERICENTER = 102.6706
MEAN_ANOMALY   = 345.5315

EPHEMERIS_TYPE = 0
CLASSIFICATION_TYPE = U
NORAD_CAT_ID   = 68211
ELEMENT_SET_NO = 999
REV_AT_EPOCH   = 296
BSTAR          = -.16211058E-4
MEAN_MOTION_DOT = -.3247E-4
MEAN_MOTION_DDOT = 0

CCSDS_OMM_VERS = 2.0
CREATION_DATE  = 
ORIGINATOR     = 

OBJECT_NAME    = STARLINK-37117
OBJECT_ID      = 2026-053F
CENTER_NAME    = EARTH
REF_FRAME      = TEME
TIME_SYSTEM    = UTC
MEAN_ELEMENT_THEORY = SGP/SGP4

EPOCH          = 2026-03-28T04:00:01.999584
MEAN_MOTION    = 15.80812258
ECCENTRICITY   = .00011247
INCLINATION    = 97.2834
RA_OF_ASC_NODE = 322.3201
ARG_OF_PERICENTER = 109.8660
MEAN_ANOMALY   = 342.6105

EPHEMERIS_TYPE = 0
CLASSIFICATION_TYPE = U
NORAD_CAT_ID   = 68212
ELEMENT_SET_NO = 999
REV_AT_EPOCH   = 298
BSTAR          = .19293216E-3
MEAN_MOTION_DOT = .36964E-3
MEAN_MOTION_DDOT = 0

CCSDS_OMM_VERS = 2.0
CREATION_DATE  = 
ORIGINATOR     = 

OBJECT_NAME    = STARLINK-37116
OBJECT_ID      = 2026-053G
CENTER_NAME    = EARTH
REF_FRAME      = TEME
TIME_SYSTEM    = UTC
MEAN_ELEMENT_THEORY = SGP/SGP4

EPOCH          = 2026-03-28T04:00:01.999584
MEAN_MOTION    = 15.80817135
ECCENTRICITY   = .00012852
INCLINATION    = 97.2825
RA_OF_ASC_NODE = 322.3211
ARG_OF_PERICENTER = 103.9285
MEAN_ANOMALY   = 352.8195

EPHEMERIS_TYPE = 0
CLASSIFICATION_TYPE = U
NORAD_CAT_ID   = 68213
ELEMENT_SET_NO = 999
REV_AT_EPOCH   = 298
BSTAR          = .13982456E-3
MEAN_MOTION_DOT = .26724E-3
MEAN_MOTION_DDOT = 0

CCSDS_OMM_VERS = 2.0
CREATION_DATE  = 
ORIGINATOR     = 

OBJECT_NAME    = STARLINK-35854
OBJECT_ID      = 2026-053H
CENTER_NAME    = EARTH
REF_FRAME      = TEME
TIME_SYSTEM    = UTC
MEAN_ELEMENT_THEORY = SGP/SGP4

EPOCH          = 2026-03-28T04:00:01.999584
MEAN_MOTION    = 15.80823472
ECCENTRICITY   = .0001034
INCLINATION    = 97.2826
RA_OF_ASC_NODE = 322.3230
ARG_OF_PERICENTER = 88.0321
MEAN_ANOMALY   = 12.9874

EPHEMERIS_TYPE = 0
CLASSIFICATION_TYPE = U
NORAD_CAT_ID   = 68214
ELEMENT_SET_NO = 999
REV_AT_EPOCH   = 274
BSTAR          = .10344982E-3
MEAN_MOTION_DOT = .19725E-3
MEAN_MOTION_DDOT = 0

CCSDS_OMM_VERS = 2.0
CREATION_DATE  = 
ORIGINATOR     = 

OBJECT_NAME    = STARLINK-36272
OBJECT_ID      = 2026-053J
CENTER_NAME    = EARTH
REF_FRAME      = TEME
TIME_SYSTEM    = UTC
MEAN_ELEMENT_THEORY = SGP/SGP4

EPOCH          = 2026-03-28T04:00:01.999584
MEAN_MOTION    = 15.80828491
ECCENTRICITY   = .00013004
INCLINATION    = 97.2822
RA_OF_ASC_NODE = 322.3245
ARG_OF_PERICENTER = 84.4676
MEAN_ANOMALY   = 20.8263

EPHEMERIS_TYPE = 0
CLASSIFICATION_TYPE = U
NORAD_CAT_ID   = 68215
ELEMENT_SET_NO = 999
REV_AT_EPOCH   = 287
BSTAR          = -.94203775E-4
MEAN_MOTION_DOT = -.18159E-3
MEAN_MOTION_DDOT = 0

